[Satellite]
VERSION=1.1
NAME=MOST
NICKNAME=MOST
TLE1=1 27843U 03031D   18020.75887661 -.00000021  00000-0  10517-4 0  9992
TLE2=2 27843  98.7134  30.7735 0011002 105.4188 254.8205 14.20561744754842
